[{"OBJECT_NAME":"STARLINK-30332","OBJECT_ID":"2023-129C","EPOCH":"2026-02-15T22:10:22.132128","MEAN_MOTION":15.02537182,"ECCENTRICITY":0.00013559,"INCLINATION":43.0022,"RA_OF_ASC_NODE":238.2749,"ARG_OF_PERICENTER":258.339,"MEAN_ANOMALY":101.73,"EPHEMERIS_TYPE":0,"CLASSIFICATION_TYPE":"U","NORAD_CAT_ID":57700,"ELEMENT_SET_NO":999,"REV_AT_EPOCH":13724,"BSTAR":5.6812714e-5,"MEAN_MOTION_DOT":5.64e-6,"MEAN_MOTION_DDOT":0},{"OBJECT_NAME":"STARLINK-30345","OBJECT_ID":"2023-129D","EPOCH":"2026-02-15T21:50:03.738336","MEAN_MOTION":15.03340991,"ECCENTRICITY":0.00015809,"INCLINATION":43.0024,"RA_OF_ASC_NODE":239.0303,"ARG_OF_PERICENTER":239.928,"MEAN_ANOMALY":120.1406,"EPHEMERIS_TYPE":0,"CLASSIFICATION_TYPE":"U","NORAD_CAT_ID":57701,"ELEMENT_SET_NO":999,"REV_AT_EPOCH":13723,"BSTAR":0.007065168,"MEAN_MOTION_DOT":0.0009868,"MEAN_MOTION_DDOT":0},{"OBJECT_NAME":"STARLINK-30333","OBJECT_ID":"2023-129E","EPOCH":"2026-02-15T12:07:24.354336","MEAN_MOTION":15.02537187,"ECCENTRICITY":0.00013136,"INCLINATION":43.0022,"RA_OF_ASC_NODE":241.1545,"ARG_OF_PERICENTER":258.6785,"MEAN_ANOMALY":101.391,"EPHEMERIS_TYPE":0,"CLASSIFICATION_TYPE":"U","NORAD_CAT_ID":57702,"ELEMENT_SET_NO":999,"REV_AT_EPOCH":13731,"BSTAR":7.8427543e-5,"MEAN_MOTION_DOT":8.56e-6,"MEAN_MOTION_DDOT":0},{"OBJECT_NAME":"STARLINK-30336","OBJECT_ID":"2023-129F","EPOCH":"2026-02-15T21:45:37.835424","MEAN_MOTION":15.03120616,"ECCENTRICITY":0.00017631,"INCLINATION":43.0021,"RA_OF_ASC_NODE":239.0066,"ARG_OF_PERICENTER":243.4399,"MEAN_ANOMALY":116.6263,"EPHEMERIS_TYPE":0,"CLASSIFICATION_TYPE":"U","NORAD_CAT_ID":57703,"ELEMENT_SET_NO":999,"REV_AT_EPOCH":13723,"BSTAR":0.0052186443,"MEAN_MOTION_DOT":0.00072135,"MEAN_MOTION_DDOT":0},{"OBJECT_NAME":"STARLINK-30346","OBJECT_ID":"2023-129G","EPOCH":"2026-02-15T15:08:53.160576","MEAN_MOTION":15.02758275,"ECCENTRICITY":0.0006795,"INCLINATION":43.005,"RA_OF_ASC_NODE":240.3792,"ARG_OF_PERICENTER":312.3157,"MEAN_ANOMALY":47.711,"EPHEMERIS_TYPE":0,"CLASSIFICATION_TYPE":"U","NORAD_CAT_ID":57704,"ELEMENT_SET_NO":999,"REV_AT_EPOCH":13719,"BSTAR":0.001899,"MEAN_MOTION_DOT":0.00025705,"MEAN_MOTION_DDOT":0},{"OBJECT_NAME":"STARLINK-30327","OBJECT_ID":"2023-129K","EPOCH":"2026-02-15T18:36:12.368160","MEAN_MOTION":15.2388347,"ECCENTRICITY":0.00228375,"INCLINATION":42.9935,"RA_OF_ASC_NODE":208.3333,"ARG_OF_PERICENTER":288.6509,"MEAN_ANOMALY":71.1862,"EPHEMERIS_TYPE":0,"CLASSIFICATION_TYPE":"U","NORAD_CAT_ID":57707,"ELEMENT_SET_NO":999,"REV_AT_EPOCH":13758,"BSTAR":0.0034249387,"MEAN_MOTION_DOT":0.00085632,"MEAN_MOTION_DDOT":0},{"OBJECT_NAME":"STARLINK-30315","OBJECT_ID":"2023-129L","EPOCH":"2026-02-15T22:53:31.515072","MEAN_MOTION":15.02537392,"ECCENTRICITY":0.00012765,"INCLINATION":43.0024,"RA_OF_ASC_NODE":238.5004,"ARG_OF_PERICENTER":257.4177,"MEAN_ANOMALY":102.6522,"EPHEMERIS_TYPE":0,"CLASSIFICATION_TYPE":"U","NORAD_CAT_ID":57708,"ELEMENT_SET_NO":999,"REV_AT_EPOCH":13738,"BSTAR":3.2150733e-5,"MEAN_MOTION_DOT":2.31e-6,"MEAN_MOTION_DDOT":0},{"OBJECT_NAME":"STARLINK-30287","OBJECT_ID":"2023-129M","EPOCH":"2026-02-15T21:27:23.225184","MEAN_MOTION":15.0253666,"ECCENTRICITY":0.00012078,"INCLINATION":43.0022,"RA_OF_ASC_NODE":238.9107,"ARG_OF_PERICENTER":266.213,"MEAN_ANOMALY":93.8574,"EPHEMERIS_TYPE":0,"CLASSIFICATION_TYPE":"U","NORAD_CAT_ID":57709,"ELEMENT_SET_NO":999,"REV_AT_EPOCH":13737,"BSTAR":2.0398255e-5,"MEAN_MOTION_DOT":7.2e-7,"MEAN_MOTION_DDOT":0},{"OBJECT_NAME":"STARLINK-30335","OBJECT_ID":"2023-129N","EPOCH":"2026-02-15T21:22:35.930496","MEAN_MOTION":15.02533041,"ECCENTRICITY":0.00012202,"INCLINATION":43.0019,"RA_OF_ASC_NODE":238.8836,"ARG_OF_PERICENTER":256.1083,"MEAN_ANOMALY":103.9623,"EPHEMERIS_TYPE":0,"CLASSIFICATION_TYPE":"U","NORAD_CAT_ID":57710,"ELEMENT_SET_NO":999,"REV_AT_EPOCH":13737,"BSTAR":1.7454381e-5,"MEAN_MOTION_DOT":3.2e-7,"MEAN_MOTION_DDOT":0},{"OBJECT_NAME":"STARLINK-30318","OBJECT_ID":"2023-129P","EPOCH":"2026-02-15T21:36:59.216832","MEAN_MOTION":15.02524473,"ECCENTRICITY":0.00012612,"INCLINATION":43.002,"RA_OF_ASC_NODE":238.947,"ARG_OF_PERICENTER":269.9908,"MEAN_ANOMALY":90.079,"EPHEMERIS_TYPE":0,"CLASSIFICATION_TYPE":"U","NORAD_CAT_ID":57711,"ELEMENT_SET_NO":999,"REV_AT_EPOCH":13723,"BSTAR":0.0001093133,"MEAN_MOTION_DOT":1.273e-5,"MEAN_MOTION_DDOT":0},{"OBJECT_NAME":"STARLINK-30348","OBJECT_ID":"2023-129Q","EPOCH":"2026-02-15T14:45:17.665920","MEAN_MOTION":15.025354,"ECCENTRICITY":0.0001009,"INCLINATION":43.0002,"RA_OF_ASC_NODE":240.2525,"ARG_OF_PERICENTER":207.5559,"MEAN_ANOMALY":152.523,"EPHEMERIS_TYPE":0,"CLASSIFICATION_TYPE":"U","NORAD_CAT_ID":57712,"ELEMENT_SET_NO":999,"REV_AT_EPOCH":13733,"BSTAR":4.2212e-5,"MEAN_MOTION_DOT":3.67e-6,"MEAN_MOTION_DDOT":0},{"OBJECT_NAME":"STARLINK-30349","OBJECT_ID":"2023-129R","EPOCH":"2026-02-15T14:35:42.367200","MEAN_MOTION":15.02535147,"ECCENTRICITY":0.0001243,"INCLINATION":43.0024,"RA_OF_ASC_NODE":240.2047,"ARG_OF_PERICENTER":278.5144,"MEAN_ANOMALY":81.5558,"EPHEMERIS_TYPE":0,"CLASSIFICATION_TYPE":"U","NORAD_CAT_ID":57713,"ELEMENT_SET_NO":999,"REV_AT_EPOCH":13719,"BSTAR":3.6586e-5,"MEAN_MOTION_DOT":2.91e-6,"MEAN_MOTION_DDOT":0},{"OBJECT_NAME":"STARLINK-30341","OBJECT_ID":"2023-129S","EPOCH":"2026-02-15T22:00:46.794528","MEAN_MOTION":15.02536754,"ECCENTRICITY":0.00011265,"INCLINATION":43.0014,"RA_OF_ASC_NODE":238.2232,"ARG_OF_PERICENTER":249.9625,"MEAN_ANOMALY":110.1096,"EPHEMERIS_TYPE":0,"CLASSIFICATION_TYPE":"U","NORAD_CAT_ID":57714,"ELEMENT_SET_NO":999,"REV_AT_EPOCH":13738,"BSTAR":5.1984355e-5,"MEAN_MOTION_DOT":4.99e-6,"MEAN_MOTION_DDOT":0},{"OBJECT_NAME":"STARLINK-30300","OBJECT_ID":"2023-129T","EPOCH":"2026-02-14T13:18:26.477568","MEAN_MOTION":15.02538173,"ECCENTRICITY":0.00011584,"INCLINATION":43.0034,"RA_OF_ASC_NODE":246.0605,"ARG_OF_PERICENTER":256.8378,"MEAN_ANOMALY":103.2336,"EPHEMERIS_TYPE":0,"CLASSIFICATION_TYPE":"U","NORAD_CAT_ID":57715,"ELEMENT_SET_NO":999,"REV_AT_EPOCH":13717,"BSTAR":3.4746311e-5,"MEAN_MOTION_DOT":2.66e-6,"MEAN_MOTION_DDOT":0},{"OBJECT_NAME":"STARLINK-30281","OBJECT_ID":"2023-129U","EPOCH":"2026-02-15T22:19:57.931104","MEAN_MOTION":15.02535279,"ECCENTRICITY":9.506e-5,"INCLINATION":43.0012,"RA_OF_ASC_NODE":238.3236,"ARG_OF_PERICENTER":230.8812,"MEAN_ANOMALY":129.1946,"EPHEMERIS_TYPE":0,"CLASSIFICATION_TYPE":"U","NORAD_CAT_ID":57716,"ELEMENT_SET_NO":999,"REV_AT_EPOCH":13724,"BSTAR":1.9123999e-5,"MEAN_MOTION_DOT":5.5e-7,"MEAN_MOTION_DDOT":0},{"OBJECT_NAME":"STARLINK-30325","OBJECT_ID":"2023-129V","EPOCH":"2026-02-15T22:39:08.429184","MEAN_MOTION":15.02537262,"ECCENTRICITY":0.00012817,"INCLINATION":43.0023,"RA_OF_ASC_NODE":238.4244,"ARG_OF_PERICENTER":260.9767,"MEAN_ANOMALY":99.093,"EPHEMERIS_TYPE":0,"CLASSIFICATION_TYPE":"U","NORAD_CAT_ID":57717,"ELEMENT_SET_NO":999,"REV_AT_EPOCH":13738,"BSTAR":3.3419985e-5,"MEAN_MOTION_DOT":2.48e-6,"MEAN_MOTION_DDOT":0}]
