STARLINK-30332          
1 57700U 23129C   26046.92386727  .00000564  00000+0  56813-4 0  9999
2 57700  43.0022 238.2749 0001355 258.3390 101.7300 15.02537182137244
STARLINK-30345          
1 57701U 23129D   26046.90976549  .00098680  00000+0  70652-2 0  9996
2 57701  43.0024 239.0303 0001580 239.9280 120.1406 15.03340991137237
STARLINK-30333          
1 57702U 23129E   26046.50514299  .00000856  00000+0  78428-4 0  9992
2 57702  43.0022 241.1545 0001313 258.6785 101.3910 15.02537187137314
STARLINK-30336          
1 57703U 23129F   26046.90668791  .00072135  00000+0  52186-2 0  9994
2 57703  43.0021 239.0066 0001763 243.4399 116.6263 15.03120616137237
STARLINK-30346          
1 57704U 23129G   26046.63117084  .00025705  00000+0  18990-2 0  9995
2 57704  43.0050 240.3792 0006795 312.3157  47.7110 15.02758275137196
STARLINK-30327          
1 57707U 23129K   26046.77514315  .00085632  00000+0  34249-2 0  9991
2 57707  42.9935 208.3333 0022837 288.6509  71.1862 15.23883470137582
STARLINK-30315          
1 57708U 23129L   26046.95383698  .00000231  00000+0  32151-4 0  9994
2 57708  43.0024 238.5004 0001276 257.4177 102.6522 15.02537392137380
STARLINK-30287          
1 57709U 23129M   26046.89401881  .00000072  00000+0  20398-4 0  9996
2 57709  43.0022 238.9107 0001207 266.2130  93.8574 15.02536660137372
STARLINK-30335          
1 57710U 23129N   26046.89069364  .00000032  00000+0  17454-4 0  9999
2 57710  43.0019 238.8836 0001220 256.1083 103.9623 15.02533041137376
STARLINK-30318          
1 57711U 23129P   26046.90068538  .00001273  00000+0  10931-3 0  9994
2 57711  43.0020 238.9470 0001261 269.9908  90.0790 15.02524473137232
STARLINK-30348          
1 57712U 23129Q   26046.61478780  .00000367  00000+0  42212-4 0  9998
2 57712  43.0002 240.2525 0001009 207.5559 152.5230 15.02535400137336
STARLINK-30349          
1 57713U 23129R   26046.60812925  .00000291  00000+0  36586-4 0  9994
2 57713  43.0024 240.2047 0001243 278.5144  81.5558 15.02535147137194
STARLINK-30341          
1 57714U 23129S   26046.91720827  .00000499  00000+0  51984-4 0  9997
2 57714  43.0014 238.2232 0001126 249.9625 110.1096 15.02536754137385
STARLINK-30300          
1 57715U 23129T   26045.55447312  .00000266  00000+0  34746-4 0  9991
2 57715  43.0034 246.0605 0001158 256.8378 103.2336 15.02538173137170
STARLINK-30281          
1 57716U 23129U   26046.93053161  .00000055  00000+0  19124-4 0  9999
2 57716  43.0012 238.3236 0000950 230.8812 129.1946 15.02535279137241
STARLINK-30325          
1 57717U 23129V   26046.94384756  .00000248  00000+0  33420-4 0  9997
2 57717  43.0023 238.4244 0001281 260.9767  99.0930 15.02537262137382
